NORAD_CAT_ID,OBJECT_NAME,OBJECT_TYPE,EPOCH,MEAN_MOTION,ECCENTRICITY,INCLINATION,RA_OF_ASC_NODE,ARG_OF_PERICENTER,MEAN_ANOMALY,BSTAR,MEAN_MOTION_DOT,MEAN_MOTION_DDOT,TLE_LINE0,TLE_LINE1,TLE_LINE2,SEMIMAJOR_AXIS,PERIOD,APOGEE,PERIGEE,DECAYED
56481.0,STARLINK-6222,PAYLOAD,2024-07-24 08:08:04,14.98324921,0.000336,69.9995,180.3988,269.6821,90.3953,-2.7561e-05,-4.22e-06,0.0,0 STARLINK-6222,1 56481U 23064AK  24206.33893984 -.00000422  00000-0 -27561-4 0  9995,2 56481  69.9995 180.3988 0003360 269.6821  90.3953 14.98324921 67225,6950.209,96.107,574.409,569.738,0.0
56481.0,STARLINK-6222,PAYLOAD,2024-07-24 22:33:16,14.98333587,0.0003394,69.9993,178.8838,269.1537,90.9233,1.6233e-05,1.01e-06,0.0,0 STARLINK-6222,1 56481U 23064AK  24206.93977329  .00000101  00000-0  16233-4 0  9993,2 56481  69.9993 178.8838 0003394 269.1537  90.9233 14.98333587 66959,6950.182,96.107,574.406,569.688,0.0
56481.0,STARLINK-6222,PAYLOAD,2024-07-25 04:57:48,14.98335004,0.0003373,69.9994,178.2106,269.4138,90.6635,3.4875e-05,3.23e-06,0.0,0 STARLINK-6222,1 56481U 23064AK  24207.20681128  .00000323  00000-0  34875-4 0  9991,2 56481  69.9994 178.2106 0003373 269.4138  90.6635 14.98335004 67353,6950.177,96.107,574.387,569.698,0.0
56481.0,STARLINK-6222,PAYLOAD,2024-07-25 06:33:56,14.98336696,0.0003361,69.9994,178.0424,269.6727,90.4047,5.3489e-05,5.45e-06,0.0,0 STARLINK-6222,1 56481U 23064AK  24207.27356946  .00000545  00000-0  53489-4 0  9993,2 56481  69.9994 178.0424 0003361 269.6727  90.4047 14.98336696 67002,6950.172,96.107,574.373,569.701,0.0
56481.0,STARLINK-6222,PAYLOAD,2024-07-25 08:10:04,14.98337498,0.0003361,69.9995,177.8742,269.8451,90.2323,6.1636e-05,6.43e-06,0.0,0 STARLINK-6222,1 56481U 23064AK  24207.34032849  .00000643  00000-0  61636-4 0  9996,2 56481  69.9995 177.8742 0003361 269.8451  90.2323 14.98337498 67375,6950.17,96.107,574.371,569.699,0.0
56481.0,STARLINK-6222,PAYLOAD,2024-07-25 20:59:09,14.9832535,0.0003318,69.9997,176.5283,270.9161,89.1618,3.6157e-05,3.38e-06,0.0,0 STARLINK-6222,1 56481U 23064AK  24207.87441624  .00000338  00000-0  36157-4 0  9990,2 56481  69.9997 176.5283 0003318 270.9161  89.1618 14.98325350 67453,6950.207,96.107,574.378,569.766,0.0
56481.0,STARLINK-6222,PAYLOAD,2024-07-25 22:35:17,14.98325124,0.000331,69.9997,176.3598,270.6322,89.4457,3.0994e-05,2.77e-06,0.0,0 STARLINK-6222,1 56481U 23064AK  24207.94117665  .00000277  00000-0  30994-4 0  9998,2 56481  69.9997 176.3598 0003310 270.6322  89.4457 14.98325124 67103,6950.208,96.107,574.373,569.772,0.0
56481.0,STARLINK-6222,PAYLOAD,2024-07-26 04:59:49,14.98327599,0.0003188,69.9996,175.6865,267.0338,93.0457,6.7862e-05,7.17e-06,0.0,0 STARLINK-6222,1 56481U 23064AK  24208.20821439  .00000717  00000-0  67862-4 0  9992,2 56481  69.9996 175.6865 0003188 267.0338  93.0457 14.98327599 67504,6950.2,96.107,574.281,569.85,0.0
56481.0,STARLINK-6222,PAYLOAD,2024-07-26 08:12:05,14.9832998,0.0003172,69.9997,175.35,266.7684,93.3112,8.969e-05,9.77e-06,0.0,0 STARLINK-6222,1 56481U 23064AK  24208.34173228  .00000977  00000-0  89690-4 0  9994,2 56481  69.9997 175.3500 0003172 266.7684  93.3112 14.98329980 67520,6950.193,96.107,574.263,569.853,0.0
56481.0,STARLINK-6222,PAYLOAD,2024-07-26 14:36:38,14.98331656,0.000308,69.9999,174.6769,270.3457,89.7349,1.6048e-05,9.8e-07,0.0,0 STARLINK-6222,1 56481U 23064AK  24208.60877351  .00000098  00000-0  16048-4 0  9992,2 56481  69.9999 174.6769 0003080 270.3457  89.7349 14.98331656 67566,6950.188,96.107,574.193,569.912,0.0
56481.0,STARLINK-6222,PAYLOAD,2024-07-27 05:01:50,14.9833737,0.000302,70.0001,173.1624,269.193,90.8883,1.3029e-05,6.2e-07,0.0,0 STARLINK-6222,1 56481U 23064AK  24209.20960801  .00000062  00000-0  13029-4 0  9999,2 56481  70.0001 173.1624 0003020 269.1930  90.8883 14.98337370 67658,6950.17,96.107,574.134,569.936,0.0
56481.0,STARLINK-6222,PAYLOAD,2024-07-27 06:37:58,14.98337556,0.0003018,70.0001,172.9941,269.2542,90.8272,1.5204e-05,8.8e-07,0.0,0 STARLINK-6222,1 56481U 23064AK  24209.27636751  .00000088  00000-0  15204-4 0  9995,2 56481  70.0001 172.9941 0003018 269.2542  90.8272 14.98337556 67663,6950.17,96.107,574.132,569.937,0.0
56481.0,STARLINK-6222,PAYLOAD,2024-07-28 05:03:51,14.98326218,0.0003155,69.9996,170.6375,266.8476,93.2322,-3.689e-05,-5.33e-06,0.0,0 STARLINK-6222,1 56481U 23064AK  24210.21101496 -.00000533  00000-0 -36890-4 0  9995,2 56481  69.9996 170.6375 0003155 266.8476  93.2322 14.98326218 67802,6950.205,96.107,574.262,569.877,0.0
56481.0,STARLINK-6222,PAYLOAD,2024-07-28 06:39:59,14.98326409,0.0003143,69.9997,170.4692,266.9234,93.1566,-3.3792e-05,-4.96e-06,0.0,0 STARLINK-6222,1 56481U 23064AK  24210.27777488 -.00000496  00000-0 -33792-4 0  9997,2 56481  69.9997 170.4692 0003143 266.9234  93.1566 14.98326409 67815,6950.204,96.107,574.253,569.885,0.0
56481.0,STARLINK-6222,PAYLOAD,2024-07-28 14:40:40,14.98327449,0.000317,69.9997,169.6276,267.3965,92.6831,-6.2526e-05,-8.39e-06,0.0,0 STARLINK-6222,1 56481U 23064AK  24210.61157529 -.00000839  00000-0 -62526-4 0  9991,2 56481  69.9997 169.6276 0003170 267.3965  92.6831 14.98327449 67868,6950.201,96.107,574.269,569.863,0.0
56481.0,STARLINK-6222,PAYLOAD,2024-07-28 22:41:20,14.98326004,0.0003106,70.0,168.7865,267.0625,93.0179,-0.0001042,-1.336e-05,0.0,0 STARLINK-6222,1 56481U 23064AK  24210.94537825 -.00001336  00000-0 -10420-3 0  9996,2 56481  70.0000 168.7865 0003106 267.0625  93.0179 14.98326004 67551,6950.205,96.107,574.229,569.912,0.0
56481.0,STARLINK-6222,PAYLOAD,2024-07-29 05:05:52,14.9832533,0.0003068,70.0001,168.1134,267.1206,92.9602,-1.6621e-05,-2.91e-06,0.0,0 STARLINK-6222,1 56481U 23064AK  24211.21241657 -.00000291  00000-0 -16621-4 0  9991,2 56481  70.0001 168.1134 0003068 267.1206  92.9602 14.98325330 67952,6950.207,96.107,574.205,569.94,0.0
56481.0,STARLINK-6222,PAYLOAD,2024-07-29 06:42:00,14.98326036,0.0003059,70.0001,167.9451,267.1939,92.887,-8.4957e-06,-1.94e-06,0.0,0 STARLINK-6222,1 56481U 23064AK  24211.27917611 -.00000194  00000-0 -84957-5 0  9997,2 56481  70.0001 167.9451 0003059 267.1939  92.8870 14.98326036 67965,6950.205,96.107,574.196,569.944,0.0
56481.0,STARLINK-6222,PAYLOAD,2024-07-29 14:42:41,14.98327451,0.0003148,69.9999,167.1029,267.7207,92.3592,1.2608e-05,5.7e-07,0.0,0 STARLINK-6222,1 56481U 23064AK  24211.61297508  .00000057  00000-0  12608-4 0  9990,2 56481  69.9999 167.1029 0003148 267.7207  92.3592 14.98327451 68019,6950.201,96.107,574.254,569.878,0.0
56481.0,STARLINK-6222,PAYLOAD,2024-07-29 22:43:21,14.9832793,0.000317,69.9998,166.2612,267.5859,92.4937,4.9268e-05,4.95e-06,0.0,0 STARLINK-6222,1 56481U 23064AK  24211.94677410  .00000495  00000-0  49268-4 0  9998,2 56481  69.9998 166.2612 0003170 267.5859  92.4937 14.98327930 67703,6950.199,96.107,574.268,569.861,0.0
56481.0,STARLINK-6222,PAYLOAD,2024-07-30 05:07:53,14.98332553,0.0003138,69.9999,165.588,267.4022,92.6777,9.7857e-05,1.075e-05,0.0,0 STARLINK-6222,1 56481U 23064AK  24212.21380994  .00001075  00000-0  97857-4 0  9999,2 56481  69.9999 165.5880 0003138 267.4022  92.6777 14.98332553 68104,6950.185,96.107,574.231,569.869,0.0
56481.0,STARLINK-6222,PAYLOAD,2024-07-30 06:44:01,14.98333651,0.0003134,69.9999,165.4197,267.465,92.615,0.00010831,1.2e-05,0.0,0 STARLINK-6222,1 56481U 23064AK  24212.28056887  .00001200  00000-0  10831-3 0  9993,2 56481  69.9999 165.4197 0003134 267.4650  92.6150 14.98333651 68113,6950.182,96.107,574.225,569.868,0.0
56481.0,STARLINK-6222,PAYLOAD,2024-07-30 14:44:41,14.98329421,0.0003078,70.0,164.5775,267.1917,92.889,4.9001e-05,4.92e-06,0.0,0 STARLINK-6222,1 56481U 23064AK  24212.61437285  .00000492  00000-0  49001-4 0  9999,2 56481  70.0000 164.5775 0003078 267.1917  92.8890 14.98329421 68169,6950.195,96.107,574.199,569.92,0.0
56481.0,STARLINK-6222,PAYLOAD,2024-07-30 22:45:22,14.98327821,0.0003078,69.9999,163.7359,266.8155,93.2652,6.5023e-05,6.83e-06,0.0,0 STARLINK-6222,1 56481U 23064AK  24212.94817345  .00000683  00000-0  65023-4 0  9998,2 56481  69.9999 163.7359 0003078 266.8155  93.2652 14.98327821 67850,6950.2,96.107,574.204,569.925,0.0
56481.0,STARLINK-6222,PAYLOAD,2024-07-31 05:09:54,14.98333186,0.0003087,69.9999,163.0633,267.9778,92.1027,6.8983e-05,7.3e-06,0.0,0 STARLINK-6222,1 56481U 23064AK  24213.21520997  .00000730  00000-0  68983-4 0  9994,2 56481  69.9999 163.0633 0003087 267.9778  92.1027 14.98333186 68251,6950.183,96.107,574.194,569.903,0.0
56481.0,STARLINK-6222,PAYLOAD,2024-07-31 06:46:02,14.98334151,0.0003078,70.0,162.895,267.8946,92.1861,7.8581e-05,8.45e-06,0.0,0 STARLINK-6222,1 56481U 23064AK  24213.28196895  .00000845  00000-0  78581-4 0  9999,2 56481  70.0000 162.8950 0003078 267.8946  92.1861 14.98334151 68262,6950.18,96.107,574.184,569.906,0.0
56481.0,STARLINK-6222,PAYLOAD,2024-07-31 21:11:15,14.98327986,0.0002805,70.0007,161.3801,269.7701,90.3136,-8.6137e-05,-1.121e-05,0.0,0 STARLINK-6222,1 56481U 23064AK  24213.88281812 -.00001121  00000-0 -86137-4 0  9995,2 56481  70.0007 161.3801 0002805 269.7701  90.3136 14.98327986 68358,6950.199,96.107,574.014,570.115,0.0
56481.0,STARLINK-6222,PAYLOAD,2024-07-31 22:47:23,14.98327571,0.0002811,70.0007,161.2118,269.7444,90.3393,-8.8581e-05,-1.15e-05,0.0,0 STARLINK-6222,1 56481U 23064AK  24213.94957845 -.00001150  00000-0 -88581-4 0  9995,2 56481  70.0007 161.2118 0002811 269.7444  90.3393 14.98327571 68006,6950.2,96.107,574.019,570.112,0.0
56481.0,STARLINK-6222,PAYLOAD,2024-08-01 05:11:55,14.98327597,0.0002764,70.0007,160.5386,269.1158,90.9684,4.278e-05,4.17e-06,0.0,0 STARLINK-6222,1 56481U 23064AK  24214.21661485  .00000417  00000-0  42780-4 0  9992,2 56481  70.0007 160.5386 0002764 269.1158  90.9684 14.98327597 68409,6950.2,96.107,573.986,570.144,0.0
56481.0,STARLINK-6222,PAYLOAD,2024-08-01 13:12:35,14.98332137,0.0002715,70.0007,159.697,271.2589,88.8259,3.39e-05,3.12e-06,0.0,0 STARLINK-6222,1 56481U 23064AK  24214.55041194  .00000312  00000-0  33900-4 0  9996,2 56481  70.0007 159.6970 0002715 271.2589  88.8259 14.98332137 68450,6950.186,96.107,573.938,570.164,0.0
